{
  "type": "FeatureCollection",
  "name": "Reviewed public housing-society boundaries",
  "features": [
    {
      "type": "Feature",
      "properties": {
        "project_id": "dha-islamabad",
        "name": "DHA Islamabad (DHA Phase 2)",
        "geometry_scope": "mapped society landuse",
        "source": "https://www.openstreetmap.org/way/619698946",
        "source_label": "OpenStreetMap mapped landuse",
        "retrieved_at": "2026-08-23",
        "disclaimer": "Public map geometry for orientation only; not a cadastral or legal boundary."
      },
      "geometry": {
        "type": "Polygon",
        "coordinates": [
          [
            [
              73.128034,
              33.534982
            ],
            [
              73.1280379,
              33.5349587
            ],
            [
              73.130908,
              33.5314711
            ],
            [
              73.1315603,
              33.5309429
            ],
            [
              73.1340297,
              33.5298321
            ],
            [
              73.134244,
              33.5300651
            ],
            [
              73.135036,
              33.5304225
            ],
            [
              73.1357442,
              33.5304302
            ],
            [
              73.1357908,
              33.5298709
            ],
            [
              73.1361543,
              33.5296224
            ],
            [
              73.1366202,
              33.5296068
            ],
            [
              73.1366301,
              33.5295585
            ],
            [
              73.1369556,
              33.5296068
            ],
            [
              73.1377477,
              33.5297933
            ],
            [
              73.1383519,
              33.529163
            ],
            [
              73.139043,
              33.5288378
            ],
            [
              73.1397419,
              33.5288067
            ],
            [
              73.1396844,
              33.5283743
            ],
            [
              73.1396953,
              33.5283251
            ],
            [
              73.1400587,
              33.5277658
            ],
            [
              73.1404658,
              33.5269824
            ],
            [
              73.1414259,
              33.5275801
            ],
            [
              73.1441774,
              33.5275639
            ],
            [
              73.1427331,
              33.5267016
            ],
            [
              73.1421926,
              33.525917
            ],
            [
              73.1416242,
              33.5258704
            ],
            [
              73.1414285,
              33.5257306
            ],
            [
              73.1433667,
              33.5246275
            ],
            [
              73.1468332,
              33.5233846
            ],
            [
              73.1638953,
              33.5192672
            ],
            [
              73.1650973,
              33.518568
            ],
            [
              73.1678902,
              33.5162324
            ],
            [
              73.1706791,
              33.5152118
            ],
            [
              73.1765811,
              33.5129648
            ],
            [
              73.176598,
              33.513186
            ],
            [
              73.1766072,
              33.5133069
            ],
            [
              73.1766513,
              33.5138858
            ],
            [
              73.1767376,
              33.515018
            ],
            [
              73.1769226,
              33.5174447
            ],
            [
              73.177044,
              33.517436
            ],
            [
              73.1775448,
              33.5173999
            ],
            [
              73.1775973,
              33.5183747
            ],
            [
              73.1777705,
              33.5204379
            ],
            [
              73.1773298,
              33.5207213
            ],
            [
              73.1775475,
              33.5229445
            ],
            [
              73.1775866,
              33.5232283
            ],
            [
              73.177923,
              33.5260803
            ],
            [
              73.1781824,
              33.5276024
            ],
            [
              73.1787357,
              33.529455
            ],
            [
              73.1787862,
              33.530515
            ],
            [
              73.1788981,
              33.5328658
            ],
            [
              73.1790218,
              33.5333795
            ],
            [
              73.17909,
              33.5336626
            ],
            [
              73.1792688,
              33.5344053
            ],
            [
              73.1791033,
              33.536469
            ],
            [
              73.1787756,
              33.5377048
            ],
            [
              73.1785737,
              33.5384664
            ],
            [
              73.1785252,
              33.5385684
            ],
            [
              73.177978,
              33.5397188
            ],
            [
              73.177594,
              33.5404085
            ],
            [
              73.1721791,
              33.5407396
            ],
            [
              73.1705904,
              33.5415561
            ],
            [
              73.168962,
              33.5395699
            ],
            [
              73.1684986,
              33.5395478
            ],
            [
              73.1683265,
              33.5400664
            ],
            [
              73.1671879,
              33.5400002
            ],
            [
              73.1673171,
              33.537561
            ],
            [
              73.1659059,
              33.5376685
            ],
            [
              73.1649174,
              33.5384626
            ],
            [
              73.1638076,
              33.5387594
            ],
            [
              73.1641366,
              33.5390955
            ],
            [
              73.1636853,
              33.539203
            ],
            [
              73.1631767,
              33.5398419
            ],
            [
              73.1631695,
              33.5408509
            ],
            [
              73.1621236,
              33.5406121
            ],
            [
              73.160244,
              33.5409536
            ],
            [
              73.1599853,
              33.5410006
            ],
            [
              73.1598887,
              33.5410181
            ],
            [
              73.159466,
              33.540833
            ],
            [
              73.1590052,
              33.5408137
            ],
            [
              73.1590076,
              33.5411495
            ],
            [
              73.1571737,
              33.5412271
            ],
            [
              73.1566222,
              33.5403972
            ],
            [
              73.1566007,
              33.5395493
            ],
            [
              73.1550247,
              33.5390119
            ],
            [
              73.1552754,
              33.538391
            ],
            [
              73.1556447,
              33.5357048
            ],
            [
              73.1536593,
              33.5353637
            ],
            [
              73.1525389,
              33.5353431
            ],
            [
              73.1518332,
              33.5356808
            ],
            [
              73.1501949,
              33.5357158
            ],
            [
              73.1483365,
              33.5357158
            ],
            [
              73.1468764,
              33.5358206
            ],
            [
              73.1451367,
              33.5358206
            ],
            [
              73.1453324,
              33.5345569
            ],
            [
              73.1445373,
              33.5343879
            ],
            [
              73.1425727,
              33.5344404
            ],
            [
              73.1422789,
              33.5338334
            ],
            [
              73.1406678,
              33.5335961
            ],
            [
              73.1403096,
              33.5338294
            ],
            [
              73.1399577,
              33.5339716
            ],
            [
              73.1394947,
              33.5340212
            ],
            [
              73.1391778,
              33.534084
            ],
            [
              73.1387022,
              33.5341318
            ],
            [
              73.1387598,
              33.5339854
            ],
            [
              73.1385765,
              33.5338988
            ],
            [
              73.1374656,
              33.5350344
            ],
            [
              73.1372975,
              33.5350219
            ],
            [
              73.1370185,
              33.5347258
            ],
            [
              73.1364209,
              33.5348395
            ],
            [
              73.1356142,
              33.5350694
            ],
            [
              73.1351461,
              33.5353081
            ],
            [
              73.1341009,
              33.5356416
            ],
            [
              73.1334904,
              33.5360011
            ],
            [
              73.1335812,
              33.5361409
            ],
            [
              73.1330921,
              33.536368
            ],
            [
              73.1327428,
              33.5361292
            ],
            [
              73.1318638,
              33.5366798
            ],
            [
              73.131587,
              33.5363996
            ],
            [
              73.1312966,
              33.536432
            ],
            [
              73.1309683,
              33.53663
            ],
            [
              73.1296618,
              33.5360826
            ],
            [
              73.12955,
              33.5355236
            ],
            [
              73.128034,
              33.534982
            ]
          ]
        ]
      }
    },
    {
      "type": "Feature",
      "properties": {
        "project_id": "capital-smart-city",
        "name": "Capital Smart City",
        "geometry_scope": "mapped society landuse",
        "source": "https://www.openstreetmap.org/way/894217563",
        "source_label": "OpenStreetMap mapped landuse",
        "retrieved_at": "2026-08-23",
        "disclaimer": "Public map geometry for orientation only; not a cadastral or legal boundary."
      },
      "geometry": {
        "type": "Polygon",
        "coordinates": [
          [
            [
              72.8257266,
              33.4328978
            ],
            [
              72.8264064,
              33.4302465
            ],
            [
              72.8277076,
              33.4261997
            ],
            [
              72.828613,
              33.4232403
            ],
            [
              72.8292128,
              33.4196952
            ],
            [
              72.8292938,
              33.4164178
            ],
            [
              72.8335126,
              33.4160337
            ],
            [
              72.8336798,
              33.4128079
            ],
            [
              72.8325774,
              33.4095373
            ],
            [
              72.8342056,
              33.407893
            ],
            [
              72.8361927,
              33.4072634
            ],
            [
              72.8376478,
              33.406146
            ],
            [
              72.8387407,
              33.4048648
            ],
            [
              72.8405179,
              33.4057493
            ],
            [
              72.8394642,
              33.4077326
            ],
            [
              72.8409565,
              33.4103456
            ],
            [
              72.8429489,
              33.4105507
            ],
            [
              72.8453078,
              33.4139466
            ],
            [
              72.8462437,
              33.4157375
            ],
            [
              72.8485387,
              33.4186029
            ],
            [
              72.8520843,
              33.42704
            ],
            [
              72.8525232,
              33.4280843
            ],
            [
              72.8775957,
              33.432028
            ],
            [
              72.882764,
              33.4343774
            ],
            [
              72.8850461,
              33.4356855
            ],
            [
              72.8847615,
              33.436445
            ],
            [
              72.8849284,
              33.4372578
            ],
            [
              72.8849721,
              33.4373538
            ],
            [
              72.8859664,
              33.4395381
            ],
            [
              72.8861404,
              33.4398209
            ],
            [
              72.887905,
              33.4426881
            ],
            [
              72.8894285,
              33.4442638
            ],
            [
              72.8894285,
              33.4472538
            ],
            [
              72.889599,
              33.449413
            ],
            [
              72.8897474,
              33.4498763
            ],
            [
              72.8903072,
              33.4507428
            ],
            [
              72.8904368,
              33.4509435
            ],
            [
              72.8926048,
              33.4516451
            ],
            [
              72.8928443,
              33.451897
            ],
            [
              72.8943209,
              33.4551312
            ],
            [
              72.8826106,
              33.4576527
            ],
            [
              72.8785726,
              33.459677
            ],
            [
              72.8767886,
              33.4611424
            ],
            [
              72.8758922,
              33.4616981
            ],
            [
              72.8750304,
              33.4621667
            ],
            [
              72.8756312,
              33.4628648
            ],
            [
              72.8764895,
              33.4625247
            ],
            [
              72.8767256,
              33.4632228
            ],
            [
              72.8757814,
              33.4646012
            ],
            [
              72.8760818,
              33.4647444
            ],
            [
              72.8762964,
              33.4642611
            ],
            [
              72.8771762,
              33.4642253
            ],
            [
              72.8787855,
              33.4646549
            ],
            [
              72.8801588,
              33.4643327
            ],
            [
              72.8801159,
              33.4647086
            ],
            [
              72.8787641,
              33.465532
            ],
            [
              72.8778414,
              33.4653172
            ],
            [
              72.8755651,
              33.4670137
            ],
            [
              72.874533,
              33.4679762
            ],
            [
              72.8735519,
              33.4695902
            ],
            [
              72.8724921,
              33.4715873
            ],
            [
              72.8674498,
              33.4742916
            ],
            [
              72.8652678,
              33.4754618
            ],
            [
              72.8651865,
              33.4754437
            ],
            [
              72.8562973,
              33.4734703
            ],
            [
              72.8502447,
              33.4721072
            ],
            [
              72.8368555,
              33.4691268
            ],
            [
              72.8365896,
              33.4649792
            ],
            [
              72.8356678,
              33.4649172
            ],
            [
              72.8358682,
              33.4607824
            ],
            [
              72.8357091,
              33.4604354
            ],
            [
              72.8355234,
              33.4600802
            ],
            [
              72.8349734,
              33.4596323
            ],
            [
              72.8346614,
              33.4596339
            ],
            [
              72.8323415,
              33.4597126
            ],
            [
              72.8315854,
              33.4587988
            ],
            [
              72.8314969,
              33.4577646
            ],
            [
              72.8350265,
              33.4565723
            ],
            [
              72.8359204,
              33.4531427
            ],
            [
              72.8363854,
              33.451961
            ],
            [
              72.8361864,
              33.4492586
            ],
            [
              72.8357173,
              33.4464624
            ],
            [
              72.8351803,
              33.4446006
            ],
            [
              72.8321347,
              33.441657
            ],
            [
              72.8294343,
              33.4399117
            ],
            [
              72.8270277,
              33.4374813
            ],
            [
              72.82607,
              33.435347
            ],
            [
              72.8257266,
              33.4328978
            ]
          ]
        ]
      }
    },
    {
      "type": "Feature",
      "properties": {
        "project_id": "dha-margalla-enclave",
        "name": "DHA Margalla Enclave",
        "geometry_scope": "mapped society landuse",
        "source": "https://www.openstreetmap.org/way/1534265768",
        "source_label": "OpenStreetMap mapped landuse",
        "retrieved_at": "2026-08-23",
        "disclaimer": "Public map geometry for orientation only; not a cadastral or legal boundary."
      },
      "geometry": {
        "type": "Polygon",
        "coordinates": [
          [
            [
              73.1658722,
              33.6960083
            ],
            [
              73.1660097,
              33.6952838
            ],
            [
              73.1665139,
              33.6943399
            ],
            [
              73.1664795,
              33.6933293
            ],
            [
              73.166468,
              33.6928717
            ],
            [
              73.1670868,
              33.6931958
            ],
            [
              73.1678431,
              33.6942637
            ],
            [
              73.1681067,
              33.6933389
            ],
            [
              73.1686911,
              33.692967
            ],
            [
              73.1692984,
              33.6935677
            ],
            [
              73.1699057,
              33.6924522
            ],
            [
              73.1717162,
              33.6929766
            ],
            [
              73.1736298,
              33.6933103
            ],
            [
              73.1739851,
              33.693787
            ],
            [
              73.1756122,
              33.6935295
            ],
            [
              73.1757153,
              33.692271
            ],
            [
              73.1761966,
              33.6922901
            ],
            [
              73.1764487,
              33.6915369
            ],
            [
              73.1747643,
              33.6906216
            ],
            [
              73.1739965,
              33.6899638
            ],
            [
              73.1742601,
              33.6890103
            ],
            [
              73.1769873,
              33.6896491
            ],
            [
              73.1770331,
              33.6894203
            ],
            [
              73.1798749,
              33.6897731
            ],
            [
              73.1803562,
              33.6877327
            ],
            [
              73.180001,
              33.6875039
            ],
            [
              73.1802187,
              33.6869699
            ],
            [
              73.1811927,
              33.6871987
            ],
            [
              73.1826136,
              33.6874848
            ],
            [
              73.1848252,
              33.687685
            ],
            [
              73.1843897,
              33.6866457
            ],
            [
              73.1841262,
              33.6856541
            ],
            [
              73.1856846,
              33.6859974
            ],
            [
              73.1874951,
              33.6873132
            ],
            [
              73.1872781,
              33.6876748
            ],
            [
              73.1845315,
              33.6882348
            ],
            [
              73.1843132,
              33.6885526
            ],
            [
              73.1840767,
              33.6894607
            ],
            [
              73.1808935,
              33.6897331
            ],
            [
              73.1828216,
              33.6901721
            ],
            [
              73.1830581,
              33.6919277
            ],
            [
              73.1845497,
              33.6914131
            ],
            [
              73.1852409,
              33.6903688
            ],
            [
              73.1860048,
              33.6899148
            ],
            [
              73.186405,
              33.6901721
            ],
            [
              73.1866051,
              33.6909439
            ],
            [
              73.1857866,
              33.6925633
            ],
            [
              73.186114,
              33.6927903
            ],
            [
              73.1873509,
              33.6940162
            ],
            [
              73.1869689,
              33.6949243
            ],
            [
              73.1857138,
              33.694561
            ],
            [
              73.1850772,
              33.6936227
            ],
            [
              73.1841859,
              33.6933503
            ],
            [
              73.1833309,
              33.6933654
            ],
            [
              73.1833491,
              33.6951361
            ],
            [
              73.1830217,
              33.6971035
            ],
            [
              73.1819121,
              33.6984807
            ],
            [
              73.1834219,
              33.6993281
            ],
            [
              73.183531,
              33.7004631
            ],
            [
              73.1825852,
              33.7013711
            ],
            [
              73.1816939,
              33.702385
            ],
            [
              73.1811664,
              33.7039588
            ],
            [
              73.1803296,
              33.7063194
            ],
            [
              73.1813664,
              33.7067128
            ],
            [
              73.1825306,
              33.7055477
            ],
            [
              73.1842222,
              33.7061378
            ],
            [
              73.185441,
              33.7048818
            ],
            [
              73.1868961,
              33.7047608
            ],
            [
              73.1876237,
              33.7051845
            ],
            [
              73.187551,
              33.7066523
            ],
            [
              73.1874055,
              33.7080142
            ],
            [
              73.1875874,
              33.7100267
            ],
            [
              73.1875088,
              33.7112259
            ],
            [
              73.1901004,
              33.7124846
            ],
            [
              73.1904201,
              33.7121461
            ],
            [
              73.1926805,
              33.713274
            ],
            [
              73.1935776,
              33.7123366
            ],
            [
              73.1954431,
              33.7121476
            ],
            [
              73.1961224,
              33.7146256
            ],
            [
              73.1899709,
              33.7126006
            ],
            [
              73.1887305,
              33.7121202
            ],
            [
              73.1873949,
              33.7114708
            ],
            [
              73.1859151,
              33.7109724
            ],
            [
              73.1842693,
              33.7094952
            ],
            [
              73.1831215,
              33.7087206
            ],
            [
              73.1813096,
              33.7075676
            ],
            [
              73.1795194,
              33.7065167
            ],
            [
              73.1778014,
              33.7055499
            ],
            [
              73.1754914,
              33.7041086
            ],
            [
              73.173564,
              33.7027094
            ],
            [
              73.1717047,
              33.7029867
            ],
            [
              73.16774,
              33.7028914
            ],
            [
              73.16774,
              33.7023832
            ],
            [
              73.1681691,
              33.7014387
            ],
            [
              73.1679449,
              33.7011473
            ],
            [
              73.1676254,
              33.6995071
            ],
            [
              73.1675566,
              33.6983345
            ],
            [
              73.1667087,
              33.6973716
            ],
            [
              73.1658722,
              33.6960083
            ]
          ]
        ]
      }
    },
    {
      "type": "Feature",
      "properties": {
        "project_id": "eighteen",
        "name": "Eighteen",
        "geometry_scope": "mapped society landuse",
        "source": "https://www.openstreetmap.org/way/1134245679",
        "source_label": "OpenStreetMap mapped landuse",
        "retrieved_at": "2026-08-23",
        "disclaimer": "Public map geometry for orientation only; not a cadastral or legal boundary."
      },
      "geometry": {
        "type": "Polygon",
        "coordinates": [
          [
            [
              72.8774855,
              33.5931738
            ],
            [
              72.878566,
              33.5921855
            ],
            [
              72.8792205,
              33.5904517
            ],
            [
              72.881849,
              33.5910862
            ],
            [
              72.8838768,
              33.5922838
            ],
            [
              72.8863444,
              33.588783
            ],
            [
              72.8907218,
              33.5901951
            ],
            [
              72.8913226,
              33.5879607
            ],
            [
              72.8933718,
              33.588271
            ],
            [
              72.8945734,
              33.5884676
            ],
            [
              72.8953663,
              33.5889062
            ],
            [
              72.8959789,
              33.5892451
            ],
            [
              72.8968372,
              33.5901299
            ],
            [
              72.8962364,
              33.591685
            ],
            [
              72.9018154,
              33.5913812
            ],
            [
              72.9023733,
              33.5924983
            ],
            [
              72.9021802,
              33.5931418
            ],
            [
              72.9003456,
              33.5948308
            ],
            [
              72.895818,
              33.5955994
            ],
            [
              72.8926208,
              33.5993706
            ],
            [
              72.8900995,
              33.5989149
            ],
            [
              72.8878787,
              33.5977442
            ],
            [
              72.8849791,
              33.6013131
            ],
            [
              72.8829406,
              33.6002676
            ],
            [
              72.8815673,
              33.5993025
            ],
            [
              72.8807734,
              33.5986591
            ],
            [
              72.8798936,
              33.5975956
            ],
            [
              72.879164,
              33.5964875
            ],
            [
              72.8786276,
              33.595424
            ],
            [
              72.8783728,
              33.5948115
            ],
            [
              72.8778684,
              33.5940529
            ],
            [
              72.8774855,
              33.5931738
            ]
          ]
        ]
      }
    },
    {
      "type": "Feature",
      "properties": {
        "project_id": "mumtaz-city-rawalpindi",
        "name": "Mumtaz City Rawalpindi",
        "geometry_scope": "mapped society landuse",
        "source": "https://www.openstreetmap.org/way/867010470",
        "source_label": "OpenStreetMap mapped landuse",
        "retrieved_at": "2026-08-23",
        "disclaimer": "Public map geometry for orientation only; not a cadastral or legal boundary."
      },
      "geometry": {
        "type": "Polygon",
        "coordinates": [
          [
            [
              72.8446601,
              33.5924797
            ],
            [
              72.8468702,
              33.5874926
            ],
            [
              72.8473455,
              33.5841624
            ],
            [
              72.8483264,
              33.5828794
            ],
            [
              72.8514879,
              33.5787193
            ],
            [
              72.8525717,
              33.5778726
            ],
            [
              72.856884,
              33.5818787
            ],
            [
              72.859484,
              33.5842689
            ],
            [
              72.8617404,
              33.5861877
            ],
            [
              72.8680275,
              33.5897985
            ],
            [
              72.8686497,
              33.5914966
            ],
            [
              72.8632639,
              33.5985924
            ],
            [
              72.85821,
              33.5983647
            ],
            [
              72.8509901,
              33.5944815
            ],
            [
              72.8470633,
              33.5943922
            ],
            [
              72.8446601,
              33.5924797
            ]
          ]
        ]
      }
    },
    {
      "type": "Feature",
      "properties": {
        "project_id": "taj-residencia",
        "name": "Taj Residencia",
        "geometry_scope": "mapped society landuse",
        "source": "https://www.openstreetmap.org/way/1014286385",
        "source_label": "OpenStreetMap mapped landuse",
        "retrieved_at": "2026-08-23",
        "disclaimer": "Public map geometry for orientation only; not a cadastral or legal boundary."
      },
      "geometry": {
        "type": "Polygon",
        "coordinates": [
          [
            [
              72.9540253,
              33.5811271
            ],
            [
              72.9611857,
              33.5803263
            ],
            [
              72.9655075,
              33.5801275
            ],
            [
              72.9686622,
              33.5849516
            ],
            [
              72.9701214,
              33.5881402
            ],
            [
              72.9705355,
              33.5891957
            ],
            [
              72.9711037,
              33.5890361
            ],
            [
              72.9715175,
              33.5907415
            ],
            [
              72.971024,
              33.5908398
            ],
            [
              72.9711045,
              33.5911973
            ],
            [
              72.9716087,
              33.592797
            ],
            [
              72.9704026,
              33.5931917
            ],
            [
              72.9698537,
              33.5934728
            ],
            [
              72.969744,
              33.5938758
            ],
            [
              72.9695,
              33.5941129
            ],
            [
              72.9692846,
              33.5941941
            ],
            [
              72.9689024,
              33.5943668
            ],
            [
              72.9686585,
              33.5945836
            ],
            [
              72.9684105,
              33.5946648
            ],
            [
              72.9680893,
              33.5947224
            ],
            [
              72.9676665,
              33.5946242
            ],
            [
              72.9676299,
              33.5946784
            ],
            [
              72.9676896,
              33.5948158
            ],
            [
              72.9678311,
              33.5954525
            ],
            [
              72.9671799,
              33.5967261
            ],
            [
              72.9661465,
              33.5984359
            ],
            [
              72.9653962,
              33.599957
            ],
            [
              72.9639779,
              33.5993236
            ],
            [
              72.9628244,
              33.5989152
            ],
            [
              72.9634217,
              33.5976967
            ],
            [
              72.9651292,
              33.5952179
            ],
            [
              72.9649178,
              33.593782
            ],
            [
              72.9649178,
              33.5932131
            ],
            [
              72.9646414,
              33.5903684
            ],
            [
              72.9644596,
              33.5885603
            ],
            [
              72.9626192,
              33.5887608
            ],
            [
              72.9619759,
              33.5875018
            ],
            [
              72.955585,
              33.5878811
            ],
            [
              72.9543211,
              33.582082
            ],
            [
              72.9540253,
              33.5811271
            ]
          ]
        ]
      }
    },
    {
      "type": "Feature",
      "properties": {
        "project_id": "pwd-housing-society",
        "name": "PWD Housing Society",
        "geometry_scope": "mapped society landuse",
        "source": "https://www.openstreetmap.org/way/899731818",
        "source_label": "OpenStreetMap mapped landuse",
        "retrieved_at": "2026-08-23",
        "disclaimer": "Public map geometry for orientation only; not a cadastral or legal boundary."
      },
      "geometry": {
        "type": "Polygon",
        "coordinates": [
          [
            [
              73.1372748,
              33.5697744
            ],
            [
              73.1373056,
              33.5692301
            ],
            [
              73.1372752,
              33.5677502
            ],
            [
              73.1381671,
              33.5664467
            ],
            [
              73.1390031,
              33.5654322
            ],
            [
              73.1398227,
              33.5659944
            ],
            [
              73.1401801,
              33.5661433
            ],
            [
              73.1404266,
              33.5661844
            ],
            [
              73.1406453,
              33.5662306
            ],
            [
              73.1407254,
              33.5662409
            ],
            [
              73.1410797,
              33.5660971
            ],
            [
              73.1415943,
              33.565522
            ],
            [
              73.1419978,
              33.5653207
            ],
            [
              73.1427316,
              33.565197
            ],
            [
              73.1437419,
              33.5651733
            ],
            [
              73.1443456,
              33.5651835
            ],
            [
              73.1463007,
              33.5652068
            ],
            [
              73.1468435,
              33.5666419
            ],
            [
              73.1471479,
              33.5674295
            ],
            [
              73.1484804,
              33.5682362
            ],
            [
              73.1477712,
              33.5689711
            ],
            [
              73.1515185,
              33.571515
            ],
            [
              73.1528634,
              33.570129
            ],
            [
              73.1532102,
              33.5698636
            ],
            [
              73.1540596,
              33.5704239
            ],
            [
              73.1537057,
              33.5708368
            ],
            [
              73.1540809,
              33.5711139
            ],
            [
              73.154279,
              33.5714442
            ],
            [
              73.1545339,
              33.5716742
            ],
            [
              73.151848,
              33.5750484
            ],
            [
              73.1509239,
              33.5762094
            ],
            [
              73.1501937,
              33.5772252
            ],
            [
              73.1497623,
              33.5770096
            ],
            [
              73.1490229,
              33.5767477
            ],
            [
              73.1486038,
              33.5765167
            ],
            [
              73.1482896,
              33.5761676
            ],
            [
              73.1481355,
              33.5759468
            ],
            [
              73.1479815,
              33.5757415
            ],
            [
              73.1474762,
              33.5755104
            ],
            [
              73.1470202,
              33.5753102
            ],
            [
              73.1464225,
              33.5750073
            ],
            [
              73.1457323,
              33.5745298
            ],
            [
              73.1450483,
              33.5740216
            ],
            [
              73.1447525,
              33.5735954
            ],
            [
              73.1445923,
              33.5731898
            ],
            [
              73.1444871,
              33.5729358
            ],
            [
              73.1442283,
              33.5728074
            ],
            [
              73.1432609,
              33.5724891
            ],
            [
              73.1405619,
              33.5729923
            ],
            [
              73.1403339,
              33.5729358
            ],
            [
              73.1401244,
              33.572561
            ],
            [
              73.1396376,
              33.5721143
            ],
            [
              73.1386982,
              33.5718178
            ],
            [
              73.1383038,
              33.5710374
            ],
            [
              73.1380019,
              33.5707088
            ],
            [
              73.1375952,
              33.5703597
            ],
            [
              73.1372748,
              33.5697744
            ]
          ]
        ]
      }
    },
    {
      "type": "Feature",
      "properties": {
        "project_id": "new-city-wah",
        "name": "New City Wah (mapped B Block, Phase 2)",
        "geometry_scope": "mapped block only",
        "source": "https://www.openstreetmap.org/way/396565497",
        "source_label": "OpenStreetMap mapped landuse",
        "retrieved_at": "2026-08-23",
        "disclaimer": "Public map geometry for orientation only; not a cadastral or legal boundary."
      },
      "geometry": {
        "type": "Polygon",
        "coordinates": [
          [
            [
              72.7356119,
              33.7465544
            ],
            [
              72.7357075,
              33.7462124
            ],
            [
              72.7368012,
              33.7460184
            ],
            [
              72.7380243,
              33.7457507
            ],
            [
              72.7383783,
              33.745831
            ],
            [
              72.7387002,
              33.7461254
            ],
            [
              72.7395198,
              33.7470446
            ],
            [
              72.7397409,
              33.7482843
            ],
            [
              72.7381697,
              33.7487665
            ],
            [
              72.73794,
              33.7489269
            ],
            [
              72.7375785,
              33.7492759
            ],
            [
              72.7372054,
              33.7495049
            ],
            [
              72.7367332,
              33.7493196
            ],
            [
              72.7362785,
              33.7492129
            ],
            [
              72.736092,
              33.7490481
            ],
            [
              72.7360103,
              33.748704
            ],
            [
              72.7372196,
              33.7482843
            ],
            [
              72.7374485,
              33.7478762
            ],
            [
              72.7366749,
              33.7474146
            ],
            [
              72.7358529,
              33.7469444
            ],
            [
              72.7356119,
              33.7465544
            ]
          ]
        ]
      }
    },
    {
      "type": "Feature",
      "properties": {
        "project_id": "blue-world-city",
        "name": "Blue World City",
        "geometry_scope": "mapped society landuse",
        "source": "https://www.openstreetmap.org/way/956597992",
        "source_label": "OpenStreetMap mapped landuse",
        "retrieved_at": "2026-08-23",
        "disclaimer": "Public map geometry for orientation only; not a cadastral or legal boundary."
      },
      "geometry": {
        "type": "Polygon",
        "coordinates": [
          [
            [
              72.8421479,
              33.3640286
            ],
            [
              72.8436386,
              33.3634261
            ],
            [
              72.8446053,
              33.3629307
            ],
            [
              72.8447781,
              33.3628332
            ],
            [
              72.8449976,
              33.3615773
            ],
            [
              72.8454194,
              33.3597404
            ],
            [
              72.8518136,
              33.3539855
            ],
            [
              72.8500012,
              33.3536051
            ],
            [
              72.8496841,
              33.3500773
            ],
            [
              72.8483792,
              33.3497741
            ],
            [
              72.8487297,
              33.3477122
            ],
            [
              72.8503511,
              33.3473941
            ],
            [
              72.8514632,
              33.347372
            ],
            [
              72.8523902,
              33.3476848
            ],
            [
              72.8551836,
              33.3525105
            ],
            [
              72.8594752,
              33.3527983
            ],
            [
              72.8673715,
              33.349516
            ],
            [
              72.8735016,
              33.3483681
            ],
            [
              72.87827,
              33.3464345
            ],
            [
              72.8802335,
              33.3425767
            ],
            [
              72.8817063,
              33.3427759
            ],
            [
              72.8829692,
              33.3417655
            ],
            [
              72.8831828,
              33.3407638
            ],
            [
              72.8839402,
              33.340035
            ],
            [
              72.8854311,
              33.3405911
            ],
            [
              72.887782,
              33.3395454
            ],
            [
              72.8884118,
              33.3389437
            ],
            [
              72.889713,
              33.3387656
            ],
            [
              72.8905735,
              33.33999
            ],
            [
              72.8903562,
              33.3436055
            ],
            [
              72.88018,
              33.3477175
            ],
            [
              72.8806761,
              33.3529079
            ],
            [
              72.8845052,
              33.351691
            ],
            [
              72.8866867,
              33.3514911
            ],
            [
              72.8870361,
              33.3518477
            ],
            [
              72.8843373,
              33.3530809
            ],
            [
              72.8833544,
              33.3538783
            ],
            [
              72.8815471,
              33.3533031
            ],
            [
              72.8809057,
              33.3537018
            ],
            [
              72.8812317,
              33.3601314
            ],
            [
              72.8845971,
              33.3620748
            ],
            [
              72.8825851,
              33.3662918
            ],
            [
              72.8806808,
              33.3685107
            ],
            [
              72.881015,
              33.3700113
            ],
            [
              72.8848392,
              33.3709421
            ],
            [
              72.8881494,
              33.367747
            ],
            [
              72.8892465,
              33.3660306
            ],
            [
              72.8902805,
              33.3661144
            ],
            [
              72.89144,
              33.3673011
            ],
            [
              72.8921911,
              33.3708338
            ],
            [
              72.8897681,
              33.3714971
            ],
            [
              72.888985,
              33.3701952
            ],
            [
              72.8874879,
              33.370038
            ],
            [
              72.8859078,
              33.371901
            ],
            [
              72.897173,
              33.3761556
            ],
            [
              72.904788,
              33.382286
            ],
            [
              72.9047483,
              33.3832584
            ],
            [
              72.9027855,
              33.3842313
            ],
            [
              72.8989868,
              33.3842148
            ],
            [
              72.8997541,
              33.3873619
            ],
            [
              72.9016906,
              33.3904697
            ],
            [
              72.8980998,
              33.3919134
            ],
            [
              72.8954301,
              33.393787
            ],
            [
              72.8942371,
              33.3965366
            ],
            [
              72.8888825,
              33.3945875
            ],
            [
              72.8874647,
              33.392072
            ],
            [
              72.8876025,
              33.3896357
            ],
            [
              72.884219,
              33.3903575
            ],
            [
              72.8818541,
              33.3908634
            ],
            [
              72.8833859,
              33.392186
            ],
            [
              72.8817909,
              33.3935448
            ],
            [
              72.8781668,
              33.3866914
            ],
            [
              72.8800787,
              33.3793004
            ],
            [
              72.8789075,
              33.3752723
            ],
            [
              72.8762573,
              33.3742741
            ],
            [
              72.8760228,
              33.3772294
            ],
            [
              72.8737516,
              33.3767584
            ],
            [
              72.8731371,
              33.3779606
            ],
            [
              72.8716,
              33.3788847
            ],
            [
              72.8714541,
              33.3800252
            ],
            [
              72.869801,
              33.3797965
            ],
            [
              72.8696798,
              33.3813768
            ],
            [
              72.8690064,
              33.3813484
            ],
            [
              72.8685898,
              33.3829073
            ],
            [
              72.8635585,
              33.3859898
            ],
            [
              72.86056,
              33.3884655
            ],
            [
              72.858204,
              33.3875672
            ],
            [
              72.8565158,
              33.3864972
            ],
            [
              72.8671141,
              33.3767567
            ],
            [
              72.8531451,
              33.3787636
            ],
            [
              72.8498407,
              33.3783515
            ],
            [
              72.847104,
              33.3772088
            ],
            [
              72.8470512,
              33.3771868
            ],
            [
              72.8453989,
              33.3750186
            ],
            [
              72.8449483,
              33.3744094
            ],
            [
              72.8452273,
              33.3721515
            ],
            [
              72.8449684,
              33.3715253
            ],
            [
              72.8449807,
              33.3703829
            ],
            [
              72.8448698,
              33.3694257
            ],
            [
              72.8476345,
              33.3693515
            ],
            [
              72.8478237,
              33.3702197
            ],
            [
              72.8494406,
              33.3703623
            ],
            [
              72.8516602,
              33.3704606
            ],
            [
              72.8524421,
              33.3705239
            ],
            [
              72.8523349,
              33.3676911
            ],
            [
              72.8518226,
              33.3670144
            ],
            [
              72.8510309,
              33.3665654
            ],
            [
              72.8507348,
              33.3662139
            ],
            [
              72.850607,
              33.3653527
            ],
            [
              72.8484588,
              33.365614
            ],
            [
              72.846474,
              33.3658831
            ],
            [
              72.8454933,
              33.3655906
            ],
            [
              72.8456334,
              33.3652122
            ],
            [
              72.8456474,
              33.3650055
            ],
            [
              72.8452925,
              33.3650133
            ],
            [
              72.8449609,
              33.36522
            ],
            [
              72.8444239,
              33.3652395
            ],
            [
              72.8437047,
              33.3652083
            ],
            [
              72.8432038,
              33.3653153
            ],
            [
              72.8425421,
              33.3644651
            ],
            [
              72.8421479,
              33.3640286
            ]
          ]
        ]
      }
    },
    {
      "type": "Feature",
      "properties": {
        "project_id": "seven-wonders-city",
        "name": "Seven Wonders City",
        "geometry_scope": "mapped society landuse",
        "source": "https://www.openstreetmap.org/way/1135480104",
        "source_label": "OpenStreetMap mapped landuse",
        "retrieved_at": "2026-08-23",
        "disclaimer": "Public map geometry for orientation only; not a cadastral or legal boundary."
      },
      "geometry": {
        "type": "Polygon",
        "coordinates": [
          [
            [
              72.6868049,
              33.5333108
            ],
            [
              72.6868398,
              33.5327479
            ],
            [
              72.6876071,
              33.532524
            ],
            [
              72.6877798,
              33.5322841
            ],
            [
              72.6881059,
              33.5318843
            ],
            [
              72.6885472,
              33.5317244
            ],
            [
              72.6891611,
              33.5319163
            ],
            [
              72.6896215,
              33.5317564
            ],
            [
              72.6898214,
              33.5315827
            ],
            [
              72.6897589,
              33.5307578
            ],
            [
              72.6904641,
              33.5308955
            ],
            [
              72.6914337,
              33.5304087
            ],
            [
              72.6923152,
              33.5304179
            ],
            [
              72.6929873,
              33.5308404
            ],
            [
              72.6938688,
              33.53107
            ],
            [
              72.6952351,
              33.5309231
            ],
            [
              72.6977143,
              33.5302526
            ],
            [
              72.6986289,
              33.5304547
            ],
            [
              72.6994663,
              33.5284982
            ],
            [
              72.6995875,
              33.5271021
            ],
            [
              72.6997858,
              33.526652
            ],
            [
              72.700469,
              33.526404
            ],
            [
              72.7005791,
              33.5255773
            ],
            [
              72.7005241,
              33.5251364
            ],
            [
              72.70167,
              33.5255681
            ],
            [
              72.7026727,
              33.5260365
            ],
            [
              72.7026947,
              33.5267255
            ],
            [
              72.703621,
              33.5279693
            ],
            [
              72.7042704,
              33.5283513
            ],
            [
              72.7048764,
              33.5280481
            ],
            [
              72.7057689,
              33.5282043
            ],
            [
              72.7062647,
              33.5280849
            ],
            [
              72.7070691,
              33.5285166
            ],
            [
              72.7075539,
              33.5279104
            ],
            [
              72.7076751,
              33.5278093
            ],
            [
              72.7091643,
              33.5281818
            ],
            [
              72.7084861,
              33.5307308
            ],
            [
              72.7082332,
              33.5316356
            ],
            [
              72.7064847,
              33.534299
            ],
            [
              72.7080194,
              33.53617
            ],
            [
              72.7069259,
              33.5368256
            ],
            [
              72.7038756,
              33.5372414
            ],
            [
              72.7022677,
              33.536064
            ],
            [
              72.7002114,
              33.5348428
            ],
            [
              72.6988493,
              33.5337873
            ],
            [
              72.6974104,
              33.5346189
            ],
            [
              72.6965279,
              33.5346828
            ],
            [
              72.6955112,
              33.5348108
            ],
            [
              72.694456,
              33.5352106
            ],
            [
              72.6935352,
              33.5360261
            ],
            [
              72.6920963,
              33.5363619
            ],
            [
              72.6910028,
              33.5360581
            ],
            [
              72.6913481,
              33.5351466
            ],
            [
              72.691022,
              33.5342191
            ],
            [
              72.6889692,
              33.5333236
            ],
            [
              72.6877798,
              33.5331477
            ],
            [
              72.6868049,
              33.5333108
            ]
          ]
        ]
      }
    }
  ]
}
